parameters: ({'Unnamed: 0': 0, 'ccsds_omm_vers': 2, 'comment': 'GENERATED VIA SPACE-TRACK.ORG API', 'creation_date': '2022-07-11T18:03:52', 'originator': '18 SPCS', 'object_name': 'VANGUARD 1', 'object_id': '1958-002B', 'center_name': 'EARTH', 'ref_frame': 'TEME', 'time_system': 'UTC', 'mean_element_theory': 'SGP4', 'epoch': '2022-07-11T07:52:06.939840', 'mean_motion': 10.84974505, 'eccentricity': 0.1847189, 'inclination': 34.2479, 'ra_of_asc_node': 65.8387, 'arg_of_pericenter': 145.0004, 'mean_anomaly': 228.7243, 'ephemeris_type': 0, 'classification_type': 'U', 'norad_cat_id': 5, 'element_set_no': 999, 'rev_at_epoch': 28713, 'bstar': 0.0004127, 'mean_motion_dot': 3.25e-06, 'mean_motion_ddot': 0, 'semimajor_axis': 8618.972, 'period': 132.722, 'apoapsis': 3832.924, 'periapsis': 648.75, 'object_type': 'PAYLOAD', 'rcs_size': 'SMALL', 'country_code': 'US', 'launch_date': '1958-03-17', 'site': 'AFETR', 'decay_date': None, 'file': 3511668, 'gp_id': 207886970, 'tle_line0': '0 VANGUARD 1', 'tle_line1': '1 00005U 58002B   22192.32785810  .00000325  00000-0  41270-3 0  9997', 'tle_line2': '2 00005  34.2479  65.8387 1847189 145.0004 228.7243 10.84974505287137'}, {'Unnamed: 0': 1, 'ccsds_omm_vers': 2, 'comment': 'GENERATED VIA SPACE-TRACK.ORG API', 'creation_date': '2022-07-11T18:03:52', 'originator': '18 SPCS', 'object_name': 'VANGUARD 2', 'object_id': '1959-001A', 'center_name': 'EARTH', 'ref_frame': 'TEME', 'time_system': 'UTC', 'mean_element_theory': 'SGP4', 'epoch': '2022-07-11T10:07:55.843968', 'mean_motion': 11.861501, 'eccentricity': 0.1466505, 'inclination': 32.8705, 'ra_of_asc_node': 103.9419, 'arg_of_pericenter': 188.9408, 'mean_anomaly': 168.2064, 'ephemeris_type': 0, 'classification_type': 'U', 'norad_cat_id': 11, 'element_set_no': 999, 'rev_at_epoch': 36450, 'bstar': 0.00012348, 'mean_motion_dot': 2.61e-06, 'mean_motion_ddot': 0, 'semimajor_axis': 8121.609, 'period': 121.401, 'apoapsis': 2934.512, 'periapsis': 552.436, 'object_type': 'PAYLOAD', 'rcs_size': 'MEDIUM', 'country_code': 'US', 'launch_date': '1959-02-17', 'site': 'AFETR', 'decay_date': None, 'file': 3511668, 'gp_id': 207886710, 'tle_line0': '0 VANGUARD 2', 'tle_line1': '1 00011U 59001A   22192.42217412  .00000261  00000-0  12348-3 0  9996', 'tle_line2': '2 00011  32.8705 103.9419 1466505 188.9408 168.2064 11.86150100364509'})